COSMOS 2228             
1 22286U 92094A   25328.10402150  .00002711  00000+0  23528-3 0  9990
2 22286  82.5175 338.3659 0016534 300.2801  59.6785 14.96602399760260
SL-16 R/B               
1 22566U 93016B   25327.83409970  .00000163  00000+0  10796-3 0  9994
2 22566  71.0084  77.5084 0008381 132.8650 227.3178 14.15288123687195
COSMOS 2242             
1 22626U 93024A   25328.10872728  .00002255  00000+0  19850-3 0  9990
2 22626  82.5199   7.6514 0014997 303.2971  56.6814 14.95994825764601
SL-16 R/B               
1 22803U 93059B   25328.02785323 -.00000183  00000+0 -66627-4 0  9995
2 22803  70.9899 233.9423 0016872   3.4848 356.6390 14.17208185664562
ARIANE 40 R/B           
1 22830U 93061H   25328.04244101  .00000299  00000+0  12551-3 0  9996
2 22830  98.5098  33.9108 0009868 232.9821 127.0461 14.32783920678975
COSMOS 2278             
1 23087U 94023A   25327.65230402  .00000256  00000+0  15863-3 0  9997
2 23087  71.0557  36.9435 0009438 205.0027 155.0640 14.14347802629818
SL-16 R/B               
1 23088U 94023B   25328.02997502  .00000091  00000+0  71752-4 0  9998
2 23088  70.9990 292.7766 0001145 119.8495 240.2742 14.14991677631149
SL-16 R/B               
1 23343U 94074B   25328.07195931  .00000580  00000+0  84609-4 0  9997
2 23343  97.7224 358.1168 0006121 193.0252 221.1366 14.79258417671634
SL-16 R/B               
1 23405U 94077B   25328.05276392 -.00000178  00000+0 -66730-4 0  9998
2 23405  70.9823 214.7251 0004526 299.1987  60.8683 14.15547684601282
ARIANE 40+ R/B          
1 23561U 95021B   25327.84682784  .00000393  00000+0  13955-3 0  9990
2 23561  98.4672  35.6620 0007932  99.0762  35.6198 14.39674260604016
SL-16 R/B               
1 23705U 95058B   25327.63051094 -.00000121  00000+0 -37528-4 0  9995
2 23705  71.0224  42.9234 0014931 279.5427  80.4008 14.15474569552843
SL-16 R/B               
1 24298U 96051B   25327.79155735 -.00000015  00000+0  18483-4 0  9991
2 24298  70.7608  39.3906 0018745 284.9484  74.9560 14.12394053506698
