CCSDS_OMM_VERS = 2.0
CREATION_DATE  = 
ORIGINATOR     = 

OBJECT_NAME    = COSMOS 2228
OBJECT_ID      = 1992-094A
CENTER_NAME    = EARTH
REF_FRAME      = TEME
TIME_SYSTEM    = UTC
MEAN_ELEMENT_THEORY = SGP/SGP4

EPOCH          = 2025-11-24T02:29:47.457600
MEAN_MOTION    = 14.96602399
ECCENTRICITY   = .0016534
INCLINATION    = 82.5175
RA_OF_ASC_NODE = 338.3659
ARG_OF_PERICENTER = 300.2801
MEAN_ANOMALY   = 59.6785

EPHEMERIS_TYPE = 0
CLASSIFICATION_TYPE = U
NORAD_CAT_ID   = 22286
ELEMENT_SET_NO = 999
REV_AT_EPOCH   = 76026
BSTAR          = .23528E-3
MEAN_MOTION_DOT = .2711E-4
MEAN_MOTION_DDOT = 0

CCSDS_OMM_VERS = 2.0
CREATION_DATE  = 
ORIGINATOR     = 

OBJECT_NAME    = SL-16 R/B
OBJECT_ID      = 1993-016B
CENTER_NAME    = EARTH
REF_FRAME      = TEME
TIME_SYSTEM    = UTC
MEAN_ELEMENT_THEORY = SGP/SGP4

EPOCH          = 2025-11-23T20:01:06.214080
MEAN_MOTION    = 14.15288123
ECCENTRICITY   = .0008381
INCLINATION    = 71.0084
RA_OF_ASC_NODE = 77.5084
ARG_OF_PERICENTER = 132.8650
MEAN_ANOMALY   = 227.3178

EPHEMERIS_TYPE = 0
CLASSIFICATION_TYPE = U
NORAD_CAT_ID   = 22566
ELEMENT_SET_NO = 999
REV_AT_EPOCH   = 68719
BSTAR          = .10796E-3
MEAN_MOTION_DOT = .163E-5
MEAN_MOTION_DDOT = 0

CCSDS_OMM_VERS = 2.0
CREATION_DATE  = 
ORIGINATOR     = 

OBJECT_NAME    = COSMOS 2242
OBJECT_ID      = 1993-024A
CENTER_NAME    = EARTH
REF_FRAME      = TEME
TIME_SYSTEM    = UTC
MEAN_ELEMENT_THEORY = SGP/SGP4

EPOCH          = 2025-11-24T02:36:34.036992
MEAN_MOTION    = 14.95994825
ECCENTRICITY   = .0014997
INCLINATION    = 82.5199
RA_OF_ASC_NODE = 7.6514
ARG_OF_PERICENTER = 303.2971
MEAN_ANOMALY   = 56.6814

EPHEMERIS_TYPE = 0
CLASSIFICATION_TYPE = U
NORAD_CAT_ID   = 22626
ELEMENT_SET_NO = 999
REV_AT_EPOCH   = 76460
BSTAR          = .1985E-3
MEAN_MOTION_DOT = .2255E-4
MEAN_MOTION_DDOT = 0

CCSDS_OMM_VERS = 2.0
CREATION_DATE  = 
ORIGINATOR     = 

OBJECT_NAME    = SL-16 R/B
OBJECT_ID      = 1993-059B
CENTER_NAME    = EARTH
REF_FRAME      = TEME
TIME_SYSTEM    = UTC
MEAN_ELEMENT_THEORY = SGP/SGP4

EPOCH          = 2025-11-24T00:40:06.519072
MEAN_MOTION    = 14.17208185
ECCENTRICITY   = .0016872
INCLINATION    = 70.9899
RA_OF_ASC_NODE = 233.9423
ARG_OF_PERICENTER = 3.4848
MEAN_ANOMALY   = 356.6390

EPHEMERIS_TYPE = 0
CLASSIFICATION_TYPE = U
NORAD_CAT_ID   = 22803
ELEMENT_SET_NO = 999
REV_AT_EPOCH   = 66456
BSTAR          = -.66627E-4
MEAN_MOTION_DOT = -.183E-5
MEAN_MOTION_DDOT = 0

CCSDS_OMM_VERS = 2.0
CREATION_DATE  = 
ORIGINATOR     = 

OBJECT_NAME    = ARIANE 40 R/B
OBJECT_ID      = 1993-061H
CENTER_NAME    = EARTH
REF_FRAME      = TEME
TIME_SYSTEM    = UTC
MEAN_ELEMENT_THEORY = SGP/SGP4

EPOCH          = 2025-11-24T01:01:06.903264
MEAN_MOTION    = 14.32783920
ECCENTRICITY   = .0009868
INCLINATION    = 98.5098
RA_OF_ASC_NODE = 33.9108
ARG_OF_PERICENTER = 232.9821
MEAN_ANOMALY   = 127.0461

EPHEMERIS_TYPE = 0
CLASSIFICATION_TYPE = U
NORAD_CAT_ID   = 22830
ELEMENT_SET_NO = 999
REV_AT_EPOCH   = 67897
BSTAR          = .12551E-3
MEAN_MOTION_DOT = .299E-5
MEAN_MOTION_DDOT = 0

CCSDS_OMM_VERS = 2.0
CREATION_DATE  = 
ORIGINATOR     = 

OBJECT_NAME    = COSMOS 2278
OBJECT_ID      = 1994-023A
CENTER_NAME    = EARTH
REF_FRAME      = TEME
TIME_SYSTEM    = UTC
MEAN_ELEMENT_THEORY = SGP/SGP4

EPOCH          = 2025-11-23T15:39:19.067328
MEAN_MOTION    = 14.14347802
ECCENTRICITY   = .0009438
INCLINATION    = 71.0557
RA_OF_ASC_NODE = 36.9435
ARG_OF_PERICENTER = 205.0027
MEAN_ANOMALY   = 155.0640

EPHEMERIS_TYPE = 0
CLASSIFICATION_TYPE = U
NORAD_CAT_ID   = 23087
ELEMENT_SET_NO = 999
REV_AT_EPOCH   = 62981
BSTAR          = .15863E-3
MEAN_MOTION_DOT = .256E-5
MEAN_MOTION_DDOT = 0

CCSDS_OMM_VERS = 2.0
CREATION_DATE  = 
ORIGINATOR     = 

OBJECT_NAME    = SL-16 R/B
OBJECT_ID      = 1994-023B
CENTER_NAME    = EARTH
REF_FRAME      = TEME
TIME_SYSTEM    = UTC
MEAN_ELEMENT_THEORY = SGP/SGP4

EPOCH          = 2025-11-24T00:43:09.841728
MEAN_MOTION    = 14.14991677
ECCENTRICITY   = .0001145
INCLINATION    = 70.9990
RA_OF_ASC_NODE = 292.7766
ARG_OF_PERICENTER = 119.8495
MEAN_ANOMALY   = 240.2742

EPHEMERIS_TYPE = 0
CLASSIFICATION_TYPE = U
NORAD_CAT_ID   = 23088
ELEMENT_SET_NO = 999
REV_AT_EPOCH   = 63114
BSTAR          = .71752E-4
MEAN_MOTION_DOT = .91E-6
MEAN_MOTION_DDOT = 0

CCSDS_OMM_VERS = 2.0
CREATION_DATE  = 
ORIGINATOR     = 

OBJECT_NAME    = SL-16 R/B
OBJECT_ID      = 1994-074B
CENTER_NAME    = EARTH
REF_FRAME      = TEME
TIME_SYSTEM    = UTC
MEAN_ELEMENT_THEORY = SGP/SGP4

EPOCH          = 2025-11-24T01:43:37.284384
MEAN_MOTION    = 14.79258417
ECCENTRICITY   = .0006121
INCLINATION    = 97.7224
RA_OF_ASC_NODE = 358.1168
ARG_OF_PERICENTER = 193.0252
MEAN_ANOMALY   = 221.1366

EPHEMERIS_TYPE = 0
CLASSIFICATION_TYPE = U
NORAD_CAT_ID   = 23343
ELEMENT_SET_NO = 999
REV_AT_EPOCH   = 67163
BSTAR          = .84609E-4
MEAN_MOTION_DOT = .58E-5
MEAN_MOTION_DDOT = 0

CCSDS_OMM_VERS = 2.0
CREATION_DATE  = 
ORIGINATOR     = 

OBJECT_NAME    = SL-16 R/B
OBJECT_ID      = 1994-077B
CENTER_NAME    = EARTH
REF_FRAME      = TEME
TIME_SYSTEM    = UTC
MEAN_ELEMENT_THEORY = SGP/SGP4

EPOCH          = 2025-11-24T01:15:58.802688
MEAN_MOTION    = 14.15547684
ECCENTRICITY   = .0004526
INCLINATION    = 70.9823
RA_OF_ASC_NODE = 214.7251
ARG_OF_PERICENTER = 299.1987
MEAN_ANOMALY   = 60.8683

EPHEMERIS_TYPE = 0
CLASSIFICATION_TYPE = U
NORAD_CAT_ID   = 23405
ELEMENT_SET_NO = 999
REV_AT_EPOCH   = 60128
BSTAR          = -.6673E-4
MEAN_MOTION_DOT = -.178E-5
MEAN_MOTION_DDOT = 0

CCSDS_OMM_VERS = 2.0
CREATION_DATE  = 
ORIGINATOR     = 

OBJECT_NAME    = ARIANE 40+ R/B
OBJECT_ID      = 1995-021B
CENTER_NAME    = EARTH
REF_FRAME      = TEME
TIME_SYSTEM    = UTC
MEAN_ELEMENT_THEORY = SGP/SGP4

EPOCH          = 2025-11-23T20:19:25.925376
MEAN_MOTION    = 14.39674260
ECCENTRICITY   = .0007932
INCLINATION    = 98.4672
RA_OF_ASC_NODE = 35.6620
ARG_OF_PERICENTER = 99.0762
MEAN_ANOMALY   = 35.6198

EPHEMERIS_TYPE = 0
CLASSIFICATION_TYPE = U
NORAD_CAT_ID   = 23561
ELEMENT_SET_NO = 999
REV_AT_EPOCH   = 60401
BSTAR          = .13955E-3
MEAN_MOTION_DOT = .393E-5
MEAN_MOTION_DDOT = 0

CCSDS_OMM_VERS = 2.0
CREATION_DATE  = 
ORIGINATOR     = 

OBJECT_NAME    = SL-16 R/B
OBJECT_ID      = 1995-058B
CENTER_NAME    = EARTH
REF_FRAME      = TEME
TIME_SYSTEM    = UTC
MEAN_ELEMENT_THEORY = SGP/SGP4

EPOCH          = 2025-11-23T15:07:56.145216
MEAN_MOTION    = 14.15474569
ECCENTRICITY   = .0014931
INCLINATION    = 71.0224
RA_OF_ASC_NODE = 42.9234
ARG_OF_PERICENTER = 279.5427
MEAN_ANOMALY   = 80.4008

EPHEMERIS_TYPE = 0
CLASSIFICATION_TYPE = U
NORAD_CAT_ID   = 23705
ELEMENT_SET_NO = 999
REV_AT_EPOCH   = 55284
BSTAR          = -.37528E-4
MEAN_MOTION_DOT = -.121E-5
MEAN_MOTION_DDOT = 0

CCSDS_OMM_VERS = 2.0
CREATION_DATE  = 
ORIGINATOR     = 

OBJECT_NAME    = SL-16 R/B
OBJECT_ID      = 1996-051B
CENTER_NAME    = EARTH
REF_FRAME      = TEME
TIME_SYSTEM    = UTC
MEAN_ELEMENT_THEORY = SGP/SGP4

EPOCH          = 2025-11-23T18:59:50.555040
MEAN_MOTION    = 14.12394053
ECCENTRICITY   = .0018745
INCLINATION    = 70.7608
RA_OF_ASC_NODE = 39.3906
ARG_OF_PERICENTER = 284.9484
MEAN_ANOMALY   = 74.9560

EPHEMERIS_TYPE = 0
CLASSIFICATION_TYPE = U
NORAD_CAT_ID   = 24298
ELEMENT_SET_NO = 999
REV_AT_EPOCH   = 50669
BSTAR          = .18483E-4
MEAN_MOTION_DOT = -.15E-6
MEAN_MOTION_DDOT = 0

